[{"OBJECT_NAME":"KL-ALPHA A","OBJECT_ID":"2019-077A","EPOCH":"2026-03-09T22:46:07.227264","MEAN_MOTION":13.56031775,"ECCENTRICITY":0.00124514,"INCLINATION":88.9161,"RA_OF_ASC_NODE":233.4356,"ARG_OF_PERICENTER":45.8977,"MEAN_ANOMALY":314.32,"EPHEMERIS_TYPE":0,"CLASSIFICATION_TYPE":"U","NORAD_CAT_ID":44785,"ELEMENT_SET_NO":999,"REV_AT_EPOCH":31228,"BSTAR":7.2064451e-5,"MEAN_MOTION_DOT":6.3e-7,"MEAN_MOTION_DDOT":0},{"OBJECT_NAME":"THORAD AGENA D DEB","OBJECT_ID":"1970-025CS","EPOCH":"2026-03-09T19:58:23.876256","MEAN_MOTION":13.58354586,"ECCENTRICITY":0.00364856,"INCLINATION":99.905,"RA_OF_ASC_NODE":147.3584,"ARG_OF_PERICENTER":198.758,"MEAN_ANOMALY":280.799,"EPHEMERIS_TYPE":0,"CLASSIFICATION_TYPE":"U","NORAD_CAT_ID":4743,"ELEMENT_SET_NO":999,"REV_AT_EPOCH":75956,"BSTAR":0.00038312142,"MEAN_MOTION_DOT":2.34e-6,"MEAN_MOTION_DDOT":0}]
